[{"OBJECT_NAME":"YAOGAN-30 07B","OBJECT_ID":"2020-021B","EPOCH":"2026-03-09T12:49:57.763776","MEAN_MOTION":15.021739,"ECCENTRICITY":0.00015807,"INCLINATION":34.9937,"RA_OF_ASC_NODE":97.6546,"ARG_OF_PERICENTER":52.3271,"MEAN_ANOMALY":307.7581,"EPHEMERIS_TYPE":0,"CLASSIFICATION_TYPE":"U","NORAD_CAT_ID":45461,"ELEMENT_SET_NO":999,"REV_AT_EPOCH":32549,"BSTAR":0.00028705108,"MEAN_MOTION_DOT":3.828e-5,"MEAN_MOTION_DDOT":0},{"OBJECT_NAME":"KORSAT-7","OBJECT_ID":"2023-185B","EPOCH":"2026-03-09T23:44:55.136256","MEAN_MOTION":15.00898391,"ECCENTRICITY":0.00224341,"INCLINATION":97.6243,"RA_OF_ASC_NODE":135.089,"ARG_OF_PERICENTER":307.6562,"MEAN_ANOMALY":52.2627,"EPHEMERIS_TYPE":0,"CLASSIFICATION_TYPE":"U","NORAD_CAT_ID":58463,"ELEMENT_SET_NO":999,"REV_AT_EPOCH":12440,"BSTAR":0.00023536002,"MEAN_MOTION_DOT":2.951e-5,"MEAN_MOTION_DDOT":0}]
